JY1SAT (JO-97)          
1 43803U 18099AX  26068.68634132  .00017774  00000+0  60804-3 0  9996
2 43803  97.4249 131.3625 0004723 256.6795 103.3919 15.30302628398390
STARLINK-31686          
1 59579U 24076R   26068.21482325  .00001789  00000+0  74477-4 0  9990
2 59579  43.0054  11.3685 0001207 273.6352  86.4362 15.27598261106434
